start=new Date('2021-09-20T00:00:00.000Z').valueOf();
sats=[{"OBJECT_NAME":"STARLINK-1552","RA_OF_ASC_NODE":"224.6496","SITE":"AFETR","SEMIMAJOR_AXIS":"6925.348","BSTAR":"0.00009111200000","TLE_LINE2":"2 46076  53.0537 224.6496 0001704  67.5670 292.5500 15.06400135 63258","RCS_SIZE":"LARGE","OBJECT_ID":"2020-055BB","PERIAPSIS":"546.033","NORAD_CAT_ID":"46076","OBJECT_TYPE":"PAYLOAD","MEAN_MOTION_DDOT":"0.0000000000000","GP_ID":"185023391","DECAY_DATE":null,"MEAN_ANOMALY":"292.5500","COUNTRY_CODE":"US","TLE_LINE1":"1 46076U 20055BB  21262.31393570  .00001076  00000-0  91112-4 0  9991","CLASSIFICATION_TYPE":"U","REV_AT_EPOCH":"6325","EPHEMERIS_TYPE":"0","TIME_SYSTEM":"UTC","PERIOD":"95.592","EPOCH":"2021-09-19T07:32:04.044480","LAUNCH_DATE":"2020-08-07","FILE":"3120015","REF_FRAME":"TEME","MEAN_MOTION_DOT":"0.00001076","APOAPSIS":"548.393","ELEMENT_SET_NO":"999","CENTER_NAME":"EARTH","ARG_OF_PERICENTER":"67.5670","ECCENTRICITY":"0.00017040","INCLINATION":"53.0537","MEAN_ELEMENT_THEORY":"SGP4","MEAN_MOTION":"15.06400135"},{"TIME_SYSTEM":"UTC","PERIOD":"95.593","EPOCH":"2021-09-19T15:03:13.743360","REF_FRAME":"TEME","MEAN_MOTION_DOT":"0.00000727","APOAPSIS":"548.287","LAUNCH_DATE":"2020-08-07","FILE":"3120378","CENTER_NAME":"EARTH","ARG_OF_PERICENTER":"71.4875","ELEMENT_SET_NO":"999","MEAN_MOTION":"15.06393236","ECCENTRICITY":"0.00015200","INCLINATION":"53.0531","MEAN_ELEMENT_THEORY":"SGP4","SEMIMAJOR_AXIS":"6925.369","SITE":"AFETR","RA_OF_ASC_NODE":"223.2380","BSTAR":"0.00006774100000","TLE_LINE2":"2 46077  53.0531 223.2380 0001520  71.4875 288.6280 15.06393236 63273","RCS_SIZE":"LARGE","PERIAPSIS":"546.182","OBJECT_ID":"2020-055BC","OBJECT_NAME":"STARLINK-1559","MEAN_MOTION_DDOT":"0.0000000000000","GP_ID":"185054687","DECAY_DATE":null,"MEAN_ANOMALY":"288.6280","NORAD_CAT_ID":"46077","OBJECT_TYPE":"PAYLOAD","TLE_LINE1":"1 46077U 20055BC  21262.62724240  .00000727  00000-0  67741-4 0  9991","COUNTRY_CODE":"US","REV_AT_EPOCH":"6327","EPHEMERIS_TYPE":"0","CLASSIFICATION_TYPE":"U"},{"PERIOD":"95.592","EPOCH":"2021-09-19T14:31:22.075968","TIME_SYSTEM":"UTC","FILE":"3120015","LAUNCH_DATE":"2020-08-07","APOAPSIS":"548.226","REF_FRAME":"TEME","MEAN_MOTION_DOT":"0.00001353","ELEMENT_SET_NO":"999","ARG_OF_PERICENTER":"73.2786","CENTER_NAME":"EARTH","INCLINATION":"53.0545","MEAN_ELEMENT_THEORY":"SGP4","ECCENTRICITY":"0.00014660","MEAN_MOTION":"15.06400795","OBJECT_NAME":"STARLINK-1563","RCS_SIZE":"LARGE","TLE_LINE2":"2 46078  53.0545 223.3374 0001466  73.2786 286.8364 15.06400795 63286","PERIAPSIS":"546.196","OBJECT_ID":"2020-055BD","SITE":"AFETR","RA_OF_ASC_NODE":"223.3374","SEMIMAJOR_AXIS":"6925.346","BSTAR":"0.00010973000000","NORAD_CAT_ID":"46078","OBJECT_TYPE":"PAYLOAD","MEAN_ANOMALY":"286.8364","GP_ID":"185024393","MEAN_MOTION_DDOT":"0.0000000000000","DECAY_DATE":null,"COUNTRY_CODE":"US","TLE_LINE1":"1 46078U 20055BD  21262.60511662  .00001353  00000-0  10973-3 0  9992","CLASSIFICATION_TYPE":"U","EPHEMERIS_TYPE":"0","REV_AT_EPOCH":"6328"},{"CENTER_NAME":"EARTH","ARG_OF_PERICENTER":"75.0685","ELEMENT_SET_NO":"999","MEAN_MOTION":"15.06390542","INCLINATION":"53.0531","MEAN_ELEMENT_THEORY":"SGP4","ECCENTRICITY":"0.00014830","PERIOD":"95.593","EPOCH":"2021-09-19T14:20:46.032000","TIME_SYSTEM":"UTC","APOAPSIS":"548.270","REF_FRAME":"TEME","MEAN_MOTION_DOT":"-0.00001006","FILE":"3120161","LAUNCH_DATE":"2020-08-07","TLE_LINE1":"1 46079U 20055BE  21262.59775500 -.00001006  00000-0 -48649-4 0  9993","COUNTRY_CODE":"US","EPHEMERIS_TYPE":"0","REV_AT_EPOCH":"6278","CLASSIFICATION_TYPE":"U","RCS_SIZE":"LARGE","TLE_LINE2":"2 46079  53.0531 223.3714 0001483  75.0685 285.0468 15.06390542 62785","OBJECT_ID":"2020-055BE","PERIAPSIS":"546.216","BSTAR":"-0.00004864900000","SITE":"AFETR","SEMIMAJOR_AXIS":"6925.378","RA_OF_ASC_NODE":"223.3714","OBJECT_NAME":"STARLINK-1566","MEAN_ANOMALY":"285.0468","GP_ID":"185030526","MEAN_MOTION_DDOT":"0.0000000000000","DECAY_DATE":null,"OBJECT_TYPE":"PAYLOAD","NORAD_CAT_ID":"46079"},{"TIME_SYSTEM":"UTC","EPOCH":"2021-09-19T14:57:54.968832","PERIOD":"95.592","MEAN_MOTION_DOT":"-0.00000804","REF_FRAME":"TEME","APOAPSIS":"548.398","LAUNCH_DATE":"2020-08-07","FILE":"3120378","CENTER_NAME":"EARTH","ARG_OF_PERICENTER":"66.4868","ELEMENT_SET_NO":"999","MEAN_MOTION":"15.06394564","ECCENTRICITY":"0.00016860","MEAN_ELEMENT_THEORY":"SGP4","INCLINATION":"53.0542","SITE":"AFETR","BSTAR":"-0.00003509700000","SEMIMAJOR_AXIS":"6925.365","RA_OF_ASC_NODE":"223.2590","PERIAPSIS":"546.063","OBJECT_ID":"2020-055BF","RCS_SIZE":"LARGE","TLE_LINE2":"2 46080  53.0542 223.2590 0001686  66.4868 293.6298 15.06394564 63293","OBJECT_NAME":"STARLINK-1568","DECAY_DATE":null,"MEAN_MOTION_DDOT":"0.0000000000000","GP_ID":"185056437","MEAN_ANOMALY":"293.6298","OBJECT_TYPE":"PAYLOAD","NORAD_CAT_ID":"46080","TLE_LINE1":"1 46080U 20055BF  21262.62355288 -.00000804  00000-0 -35097-4 0  9994","COUNTRY_CODE":"US","REV_AT_EPOCH":"6329","EPHEMERIS_TYPE":"0","CLASSIFICATION_TYPE":"U"},{"APOAPSIS":"548.396","REF_FRAME":"TEME","MEAN_MOTION_DOT":"0.00001090","FILE":"3120378","LAUNCH_DATE":"2020-08-07","PERIOD":"95.592","EPOCH":"2021-09-19T22:07:50.585664","TIME_SYSTEM":"UTC","MEAN_MOTION":"15.06401475","INCLINATION":"53.0557","MEAN_ELEMENT_THEORY":"SGP4","ECCENTRICITY":"0.00017140","ARG_OF_PERICENTER":"70.9396","CENTER_NAME":"EARTH","ELEMENT_SET_NO":"999","MEAN_ANOMALY":"289.1778","MEAN_MOTION_DDOT":"0.0000000000000","GP_ID":"185054188","DECAY_DATE":null,"OBJECT_TYPE":"PAYLOAD","NORAD_CAT_ID":"46081","TLE_LINE2":"2 46081  53.0557 221.9066 0001714  70.9396 289.1778 15.06401475 63351","RCS_SIZE":"LARGE","PERIAPSIS":"546.022","OBJECT_ID":"2020-055BG","SITE":"AFETR","RA_OF_ASC_NODE":"221.9066","SEMIMAJOR_AXIS":"6925.344","BSTAR":"0.00009207600000","OBJECT_NAME":"STARLINK-1571","EPHEMERIS_TYPE":"0","REV_AT_EPOCH":"6335","CLASSIFICATION_TYPE":"U","TLE_LINE1":"1 46081U 20055BG  21262.92211326  .00001090  00000-0  92076-4 0  9998","COUNTRY_CODE":"US"},{"REF_FRAME":"TEME","MEAN_MOTION_DOT":"0.00001419","APOAPSIS":"548.399","LAUNCH_DATE":"2020-08-07","FILE":"3120378","TIME_SYSTEM":"UTC","PERIOD":"95.592","EPOCH":"2021-09-19T21:04:09.617376","MEAN_MOTION":"15.06395680","ECCENTRICITY":"0.00016920","INCLINATION":"53.0530","MEAN_ELEMENT_THEORY":"SGP4","CENTER_NAME":"EARTH","ARG_OF_PERICENTER":"68.2925","ELEMENT_SET_NO":"999","MEAN_MOTION_DDOT":"0.0000000000000","GP_ID":"185054936","DECAY_DATE":null,"MEAN_ANOMALY":"291.8244","OBJECT_TYPE":"PAYLOAD","NORAD_CAT_ID":"46082","BSTAR":"0.00011416000000","SITE":"AFETR","SEMIMAJOR_AXIS":"6925.362","RA_OF_ASC_NODE":"222.1145","RCS_SIZE":"LARGE","TLE_LINE2":"2 46082  53.0530 222.1145 0001692  68.2925 291.8244 15.06395680 63355","OBJECT_ID":"2020-055BH","PERIAPSIS":"546.055","OBJECT_NAME":"STARLINK-1578","REV_AT_EPOCH":"6335","EPHEMERIS_TYPE":"0","CLASSIFICATION_TYPE":"U","TLE_LINE1":"1 46082U 20055BH  21262.87788909  .00001419  00000-0  11416-3 0  9992","COUNTRY_CODE":"US"},{"REV_AT_EPOCH":"6330","EPHEMERIS_TYPE":"0","CLASSIFICATION_TYPE":"U","TLE_LINE1":"1 46083U 20055BJ  21262.58300554  .00001103  00000-0  92924-4 0  9991","COUNTRY_CODE":"US","DECAY_DATE":null,"GP_ID":"185024644","MEAN_MOTION_DDOT":"0.0000000000000","MEAN_ANOMALY":"298.1117","OBJECT_TYPE":"PAYLOAD","NORAD_CAT_ID":"46083","SEMIMAJOR_AXIS":"6925.345","SITE":"AFETR","RA_OF_ASC_NODE":"223.4344","BSTAR":"0.00009292400000","OBJECT_ID":"2020-055BJ","PERIAPSIS":"546.104","RCS_SIZE":"LARGE","TLE_LINE2":"2 46083  53.0535 223.4344 0001596  62.0033 298.1117 15.06401257 63303","OBJECT_NAME":"STARLINK-1579","MEAN_MOTION":"15.06401257","ECCENTRICITY":"0.00015960","MEAN_ELEMENT_THEORY":"SGP4","INCLINATION":"53.0535","CENTER_NAME":"EARTH","ARG_OF_PERICENTER":"62.0033","ELEMENT_SET_NO":"999","MEAN_MOTION_DOT":"0.00001103","REF_FRAME":"TEME","APOAPSIS":"548.315","LAUNCH_DATE":"2020-08-07","FILE":"3120015","TIME_SYSTEM":"UTC","EPOCH":"2021-09-19T13:59:31.678656","PERIOD":"95.592"},{"MEAN_ANOMALY":"264.3210","DECAY_DATE":null,"MEAN_MOTION_DDOT":"0.0000000000000","GP_ID":"185054692","OBJECT_TYPE":"PAYLOAD","NORAD_CAT_ID":"46117","OBJECT_ID":"2020-057A","PERIAPSIS":"545.864","TLE_LINE2":"2 46117  53.0559  62.6935 0001966  95.8003 264.3210 15.06395996 60373","RCS_SIZE":"LARGE","RA_OF_ASC_NODE":"62.6935","SITE":"AFETR","SEMIMAJOR_AXIS":"6925.361","BSTAR":"-0.00002910700000","OBJECT_NAME":"STARLINK-1585","EPHEMERIS_TYPE":"0","REV_AT_EPOCH":"6037","CLASSIFICATION_TYPE":"U","TLE_LINE1":"1 46117U 20057A   21262.74887909 -.00000715  00000-0 -29107-4 0  9996","COUNTRY_CODE":"US","APOAPSIS":"548.587","MEAN_MOTION_DOT":"-0.00000715","REF_FRAME":"TEME","FILE":"3120378","LAUNCH_DATE":"2020-08-18","EPOCH":"2021-09-19T17:58:23.153376","PERIOD":"95.592","TIME_SYSTEM":"UTC","MEAN_MOTION":"15.06395996","MEAN_ELEMENT_THEORY":"SGP4","INCLINATION":"53.0559","ECCENTRICITY":"0.00019660","CENTER_NAME":"EARTH","ARG_OF_PERICENTER":"95.8003","ELEMENT_SET_NO":"999"},{"CLASSIFICATION_TYPE":"U","EPHEMERIS_TYPE":"0","REV_AT_EPOCH":"6139","COUNTRY_CODE":"US","TLE_LINE1":"1 46118U 20057B   21262.89079715  .00000625  00000-0  60900-4 0  9995","OBJECT_TYPE":"PAYLOAD","NORAD_CAT_ID":"46118","MEAN_ANOMALY":"269.5454","DECAY_DATE":null,"MEAN_MOTION_DDOT":"0.0000000000000","GP_ID":"185055440","OBJECT_NAME":"STARLINK-1588","PERIAPSIS":"545.944","OBJECT_ID":"2020-057B","TLE_LINE2":"2 46118  53.0558  82.0630 0001886  90.5751 269.5454 15.06388194 61396","RCS_SIZE":"LARGE","SITE":"AFETR","BSTAR":"0.00006090000000","SEMIMAJOR_AXIS":"6925.385","RA_OF_ASC_NODE":"82.0630","MEAN_ELEMENT_THEORY":"SGP4","INCLINATION":"53.0558","ECCENTRICITY":"0.00018860","MEAN_MOTION":"15.06388194","ELEMENT_SET_NO":"999","CENTER_NAME":"EARTH","ARG_OF_PERICENTER":"90.5751","FILE":"3120378","LAUNCH_DATE":"2020-08-18","APOAPSIS":"548.556","MEAN_MOTION_DOT":"0.00000625","REF_FRAME":"TEME","EPOCH":"2021-09-19T21:22:44.873760","PERIOD":"95.593","TIME_SYSTEM":"UTC"}];
